{"type":"FeatureCollection","features":[{"type":"Feature","properties":{"state":"Washington","placename":"Auburn city","totpop1970":21817,"totpop1980":26417,"totpop1990":33102,"totpop2000":40314,"totpop2010":70180,"totpop2019":80134,"totpop2020":87256,"chg_1970_to_2020":65439,"chgp_1970_2020":299.9},"geometry":{"type":"Point","coordinates":[-122.21,47.3]}},{"type":"Feature","properties":{"state":"Washington","placename":"Bellevue city","totpop1970":61102,"totpop1980":73903,"totpop1990":86874,"totpop2000":109569,"totpop2010":122363,"totpop2019":144403,"totpop2020":151854,"chg_1970_to_2020":90752,"chgp_1970_2020":148.5},"geometry":{"type":"Point","coordinates":[-122.15,47.6]}},{"type":"Feature","properties":{"state":"Washington","placename":"Bellingham city","totpop1970":39375,"totpop1980":45794,"totpop1990":52179,"totpop2000":67171,"totpop2010":80885,"totpop2019":88764,"totpop2020":91482,"chg_1970_to_2020":52107,"chgp_1970_2020":132.3},"geometry":{"type":"Point","coordinates":[-122.47,48.75]}},{"type":"Feature","properties":{"state":"Washington","placename":"Burien city","totpop1970":0,"totpop1980":23189,"totpop1990":25089,"totpop2000":31881,"totpop2010":33313,"totpop2019":51477,"totpop2020":52066,"chg_1970_to_2020":52066,"chgp_1970_2020":""},"geometry":{"type":"Point","coordinates":[-122.36,47.47]}},{"type":"Feature","properties":{"state":"Washington","placename":"Everett city","totpop1970":53622,"totpop1980":54413,"totpop1990":69961,"totpop2000":91488,"totpop2010":103019,"totpop2019":109766,"totpop2020":110629,"chg_1970_to_2020":57007,"chgp_1970_2020":106.3},"geometry":{"type":"Point","coordinates":[-122.19,47.96]}},{"type":"Feature","properties":{"state":"Washington","placename":"Federal Way city","totpop1970":0,"totpop1980":0,"totpop1990":67554,"totpop2000":83259,"totpop2010":89306,"totpop2019":96526,"totpop2020":101030,"chg_1970_to_2020":101030,"chgp_1970_2020":""},"geometry":{"type":"Point","coordinates":[-122.34,47.31]}},{"type":"Feature","properties":{"state":"Washington","placename":"Kennewick city","totpop1970":15212,"totpop1980":34397,"totpop1990":42155,"totpop2000":54693,"totpop2010":73917,"totpop2019":81479,"totpop2020":83921,"chg_1970_to_2020":68709,"chgp_1970_2020":451.7},"geometry":{"type":"Point","coordinates":[-119.17,46.2]}},{"type":"Feature","properties":{"state":"Washington","placename":"Kent city","totpop1970":21510,"totpop1980":23152,"totpop1990":37960,"totpop2000":79524,"totpop2010":92411,"totpop2019":131118,"totpop2020":136588,"chg_1970_to_2020":115078,"chgp_1970_2020":"535.0"},"geometry":{"type":"Point","coordinates":[-122.22,47.38]}},{"type":"Feature","properties":{"state":"Washington","placename":"Kirkland city","totpop1970":15249,"totpop1980":18779,"totpop1990":40052,"totpop2000":45054,"totpop2010":48787,"totpop2019":89438,"totpop2020":92175,"chg_1970_to_2020":76926,"chgp_1970_2020":504.5},"geometry":{"type":"Point","coordinates":[-122.19,47.69]}},{"type":"Feature","properties":{"state":"Washington","placename":"Lacey city","totpop1970":9696,"totpop1980":13940,"totpop1990":19279,"totpop2000":31226,"totpop2010":42393,"totpop2019":49248,"totpop2020":53526,"chg_1970_to_2020":43830,"chgp_1970_2020":"452.0"},"geometry":{"type":"Point","coordinates":[-122.79,47.04]}},{"type":"Feature","properties":{"state":"Washington","placename":"Lakewood city","totpop1970":0,"totpop1980":0,"totpop1990":58412,"totpop2000":58211,"totpop2010":58163,"totpop2019":60111,"totpop2020":63612,"chg_1970_to_2020":63612,"chgp_1970_2020":""},"geometry":{"type":"Point","coordinates":[-122.53,47.16]}},{"type":"Feature","properties":{"state":"Washington","placename":"Marysville city","totpop1970":4343,"totpop1980":5080,"totpop1990":10328,"totpop2000":25315,"totpop2010":60020,"totpop2019":68633,"totpop2020":70714,"chg_1970_to_2020":66371,"chgp_1970_2020":1528.2},"geometry":{"type":"Point","coordinates":[-122.16,48.08]}},{"type":"Feature","properties":{"state":"Washington","placename":"Olympia city","totpop1970":23111,"totpop1980":27447,"totpop1990":33840,"totpop2000":42514,"totpop2010":46478,"totpop2019":51534,"totpop2020":55605,"chg_1970_to_2020":32494,"chgp_1970_2020":140.6},"geometry":{"type":"Point","coordinates":[-122.9,47.04]}},{"type":"Feature","properties":{"state":"Washington","placename":"Pasco city","totpop1970":13920,"totpop1980":17944,"totpop1990":20337,"totpop2000":32066,"totpop2010":59781,"totpop2019":72899,"totpop2020":77108,"chg_1970_to_2020":63188,"chgp_1970_2020":453.9},"geometry":{"type":"Point","coordinates":[-119.13,46.25]}},{"type":"Feature","properties":{"state":"Washington","placename":"Redmond city","totpop1970":11031,"totpop1980":23318,"totpop1990":35800,"totpop2000":45256,"totpop2010":54144,"totpop2019":65558,"totpop2020":73256,"chg_1970_to_2020":62225,"chgp_1970_2020":564.1},"geometry":{"type":"Point","coordinates":[-122.12,47.68]}},{"type":"Feature","properties":{"state":"Washington","placename":"Renton city","totpop1970":25258,"totpop1980":30612,"totpop1990":41688,"totpop2000":50052,"totpop2010":90927,"totpop2019":101484,"totpop2020":106785,"chg_1970_to_2020":81527,"chgp_1970_2020":322.8},"geometry":{"type":"Point","coordinates":[-122.19,47.48]}},{"type":"Feature","properties":{"state":"Washington","placename":"Richland city","totpop1970":26290,"totpop1980":33578,"totpop1990":32315,"totpop2000":38708,"totpop2010":48058,"totpop2019":56399,"totpop2020":60560,"chg_1970_to_2020":34270,"chgp_1970_2020":130.4},"geometry":{"type":"Point","coordinates":[-119.29,46.29]}},{"type":"Feature","properties":{"state":"Washington","placename":"Sammamish city","totpop1970":0,"totpop1980":0,"totpop1990":0,"totpop2000":34104,"totpop2010":45780,"totpop2019":64674,"totpop2020":67455,"chg_1970_to_2020":67455,"chgp_1970_2020":""},"geometry":{"type":"Point","coordinates":[-122.04,47.6]}},{"type":"Feature","properties":{"state":"Washington","placename":"Seattle city","totpop1970":530831,"totpop1980":493846,"totpop1990":516259,"totpop2000":563374,"totpop2010":608660,"totpop2019":724305,"totpop2020":737015,"chg_1970_to_2020":206184,"chgp_1970_2020":38.8},"geometry":{"type":"Point","coordinates":[-122.35,47.62]}},{"type":"Feature","properties":{"state":"Washington","placename":"Shoreline city","totpop1970":0,"totpop1980":0,"totpop1990":0,"totpop2000":53025,"totpop2010":53007,"totpop2019":56267,"totpop2020":58608,"chg_1970_to_2020":58608,"chgp_1970_2020":""},"geometry":{"type":"Point","coordinates":[-122.34,47.76]}},{"type":"Feature","properties":{"state":"Washington","placename":"South Hill CDP","totpop1970":0,"totpop1980":0,"totpop1990":12963,"totpop2000":31623,"totpop2010":52431,"totpop2019":60172,"totpop2020":64708,"chg_1970_to_2020":64708,"chgp_1970_2020":""},"geometry":{"type":"Point","coordinates":[-122.28,47.12]}},{"type":"Feature","properties":{"state":"Washington","placename":"Spokane city","totpop1970":170516,"totpop1980":171300,"totpop1990":177196,"totpop2000":195629,"totpop2010":208916,"totpop2019":217353,"totpop2020":228989,"chg_1970_to_2020":58473,"chgp_1970_2020":34.3},"geometry":{"type":"Point","coordinates":[-117.42,47.67]}},{"type":"Feature","properties":{"state":"Washington","placename":"Spokane Valley city","totpop1970":0,"totpop1980":0,"totpop1990":0,"totpop2000":0,"totpop2010":89755,"totpop2019":97562,"totpop2020":102976,"chg_1970_to_2020":102976,"chgp_1970_2020":""},"geometry":{"type":"Point","coordinates":[-117.23,47.66]}},{"type":"Feature","properties":{"state":"Washington","placename":"Tacoma city","totpop1970":154581,"totpop1980":158501,"totpop1990":176664,"totpop2000":193556,"totpop2010":198397,"totpop2019":212869,"totpop2020":219346,"chg_1970_to_2020":64765,"chgp_1970_2020":41.9},"geometry":{"type":"Point","coordinates":[-122.46,47.25]}},{"type":"Feature","properties":{"state":"Washington","placename":"Vancouver city","totpop1970":42493,"totpop1980":42834,"totpop1990":46380,"totpop2000":143560,"totpop2010":161791,"totpop2019":180556,"totpop2020":190915,"chg_1970_to_2020":148422,"chgp_1970_2020":349.3},"geometry":{"type":"Point","coordinates":[-122.6,45.64]}},{"type":"Feature","properties":{"state":"Washington","placename":"Yakima city","totpop1970":45588,"totpop1980":49826,"totpop1990":54827,"totpop2000":71845,"totpop2010":91067,"totpop2019":93413,"totpop2020":96968,"chg_1970_to_2020":51380,"chgp_1970_2020":112.7},"geometry":{"type":"Point","coordinates":[-120.55,46.59]}}]}